[
    {
        "Altitude(m)": 607895.8172498551,
        "Argument of Periapsis(deg)": 0.0,
        "Eccentricity": 0.0,
        "Inclination(deg)": 60.0,
        "Latitude(deg)": 40.998339226593494,
        "Longitude(deg)": -169.91125947848164,
        "Mean Anomaly(deg)": 130.9091,
        "RAAN(deg)": 140.0,
        "Satellite Name": "Test1 624",
        "Satellite Number": 624,
        "Semi-Major Axis(m)": 6980739.136638005,
        "Time(s)": 0
    },
    {
        "Altitude(m)": 607795.1297425554,
        "Argument of Periapsis(deg)": 0.00010418945913296404,
        "Eccentricity": 0.0,
        "Inclination(deg)": 60.0,
        "Latitude(deg)": 40.53066253207436,
        "Longitude(deg)": -169.41466720377443,
        "Mean Anomaly(deg)": 131.52920614546187,
        "RAAN(deg)": 139.99957995086024,
        "Satellite Name": "Test1 624",
        "Satellite Number": 624,
        "Semi-Major Axis(m)": 6980739.136638005,
        "Time(s)": 10
    }
]